GLOBALSTAR M068 [-]     
1 32266U 07048D   23313.69781244 -.00000059  00000+0  25032-3 0  9990
2 32266  51.9889 286.9412 0000688 325.6018 205.1889 12.62770713743586
GLOBALSTAR M079 [+]     
1 37188U 10054A   23313.44322913 -.00000077  00000+0  14992-3 0  9999
2 37188  52.0015 122.8841 0001162  97.7043 279.5726 12.62269818602481
GLOBALSTAR M074 [+]     
1 37189U 10054B   23313.78533252 -.00000083  00000+0  11872-3 0  9998
2 37189  51.9992 121.2548 0000954 101.7901 271.3644 12.62271896603139
GLOBALSTAR M076 [+]     
1 37190U 10054C   23313.73268490 -.00000066  00000+0  21054-3 0  9998
2 37190  52.0005 121.5344 0001378 118.3047 254.5670 12.62263707602842
GLOBALSTAR M077 [+]     
1 37191U 10054D   23313.66043503 -.00000076  00000+0  15390-3 0  9994
2 37191  52.0067  78.4412 0000745 116.0618 347.5603 12.62266414603201
GLOBALSTAR M075 [+]     
1 37192U 10054E   23313.92522675 -.00000049  00000+0  30844-3 0  9997
2 37192  51.9929 163.5347 0001099  84.1136  22.7242 12.62267519602097
GLOBALSTAR M073 [+]     
1 37193U 10054F   23313.66668117 -.00000104  00000+0 -19623-5 0  9998
2 37193  52.0058  77.6878 0000829 113.0034 260.2416 12.62269240603890
GLOBALSTAR M083 [+]     
1 37739U 11033A   23313.95195564 -.00000093  00000+0  62510-4 0  9993
2 37739  51.9884  26.3512 0000531  83.8422  87.5685 12.62262705572940
GLOBALSTAR M088 [+]     
1 37740U 11033B   23313.68806166 -.00000087  00000+0  92034-4 0  9999
2 37740  51.9741 293.1416 0000741  53.0572 117.9771 12.62267397568456
GLOBALSTAR M091 [+]     
1 37741U 11033C   23313.92502442 -.00000100  00000+0  20428-4 0  9991
2 37741  52.0001 254.9281 0001013  55.7181  51.8677 12.62268253569275
GLOBALSTAR M085 [+]     
1 37742U 11033D   23313.97027428 -.00000079  00000+0  13842-3 0  9999
2 37742  51.9859 206.3472 0001139  65.8161 307.9838 12.62264974569794
GLOBALSTAR M081 [+]     
1 37743U 11033E   23313.93201681 -.00000075  00000+0  15966-3 0  9996
2 37743  51.9950 208.8894 0001252  73.7123   6.1404 12.62266581569933
GLOBALSTAR M089 [+]     
1 37744U 11033F   23313.89737038 -.00000064  00000+0  22280-3 0  9997
2 37744  51.9909 163.3327 0001023 100.2815   2.0606 12.62269459570774
GLOBALSTAR M084 [+]     
1 38040U 11080A   23313.51572757 -.00000091  00000+0  68968-4 0  9997
2 38040  52.0029  31.4713 0000630 139.4813 326.7840 12.62267414548701
GLOBALSTAR M080 [+]     
1 38041U 11080B   23313.56898333 -.00000092  00000+0  64190-4 0  9998
2 38041  52.0083  32.7101 0000829 139.3735 329.1214 12.62265912548836
GLOBALSTAR M082 [+]     
1 38042U 11080C   23313.83323711 -.00000075  00000+0  16298-3 0  9998
2 38042  52.0097 347.2905 0000623  17.0126 154.0490 12.62267769549571
GLOBALSTAR M092 [+]     
1 38043U 11080D   23313.88260469 -.00000099  00000+0  25951-4 0  9997
2 38043  52.0086  77.4803 0000709 141.2270  15.0689 12.62262450548032
GLOBALSTAR M090 [+]     
1 38044U 11080E   23313.85950684 -.00000072  00000+0  17583-3 0  9992
2 38044  51.9905 341.7724 0000463  50.6529 120.7335 12.62263250549691
GLOBALSTAR M086 [+]     
1 38045U 11080F   23313.80689575 -.00000073  00000+0  17078-3 0  9996
2 38045  51.9916 342.4396 0001293  97.7531  73.4003 12.62264097549634
GLOBALSTAR M097 [+]     
1 39072U 13005A   23313.24146625 -.00000099  00000+0  28080-4 0  9992
2 39072  52.0049 258.1122 0000963  55.9814 304.1144 12.62272472496814
GLOBALSTAR M093 [+]     
1 39073U 13005B   23313.21497640 -.00000093  00000+0  60716-4 0  9992
2 39073  51.9812 252.4338 0001231  57.0628 303.0356 12.62268574496767
GLOBALSTAR M094 [+]     
1 39074U 13005C   23313.84849853 -.00000063  00000+0  22914-3 0  9993
2 39074  51.9936 164.3020 0001210  83.5469 276.5535 12.62269708498459
GLOBALSTAR M096 [+]     
1 39075U 13005D   23313.86170914 -.00000083  00000+0  11852-3 0  9992
2 39075  52.0067 212.3191 0001216  66.6843 293.4152 12.62265972497376
GLOBALSTAR M078 [+]     
1 39076U 13005E   23313.67677305 -.00000089  00000+0  83521-4 0  9997
2 39076  51.9879 298.1866 0000979 349.3883  10.6963 12.62263032495975
GLOBALSTAR M095 [+]     
1 39077U 13005F   23313.22822319 -.00000087  00000+0  91510-4 0  9991
2 39077  51.9807 297.0415 0000977  21.7744 338.3164 12.62270533495775
GLOBALSTAR M087 [+]     
1 52888U 22064A   23313.22672639 -.00000087  00000+0  78620-4 0  9996
2 52888  51.9760 258.8491 0009404 159.8175 200.3099 13.37557421 67959
